NORAD_CAT_ID,OBJECT_NAME,OBJECT_TYPE,EPOCH,MEAN_MOTION,ECCENTRICITY,INCLINATION,RA_OF_ASC_NODE,ARG_OF_PERICENTER,MEAN_ANOMALY,BSTAR,MEAN_MOTION_DOT,MEAN_MOTION_DDOT,TLE_LINE0,TLE_LINE1,TLE_LINE2,SEMIMAJOR_AXIS,PERIOD,APOGEE,PERIGEE,DECAYED
56487.0,STARLINK-6196,PAYLOAD,2024-04-20 21:09:59,14.98267378,0.0003178,70.0033,38.7467,270.8444,89.2351,-0.00074299,-8.933e-05,0.0,0 STARLINK-6196,1 56487U 23064AR  24111.88193429 -.00008933  00000-0 -74299-3 0  9997,2 56487  70.0033  38.7467 0003178 270.8444  89.2351 14.98267378 53560,6950.387,96.111,574.46,570.043,0.0
56487.0,STARLINK-6196,PAYLOAD,2024-04-21 03:34:29,14.98296581,0.0002854,70.0032,38.0724,241.1344,118.9529,-0.00042016,-5.098e-05,0.0,0 STARLINK-6196,1 56487U 23064AR  24112.14895517 -.00005098  00000-0 -42016-3 0  9995,2 56487  70.0032  38.0724 0002854 241.1344 118.9529 14.98296581 53608,6950.296,96.109,574.145,570.178,0.0
56487.0,STARLINK-6196,PAYLOAD,2024-04-21 05:10:36,14.98319052,0.0003029,70.0026,37.9038,252.6578,107.425,-0.00018649,-2.317e-05,0.0,0 STARLINK-6196,1 56487U 23064AR  24112.21569640 -.00002317  00000-0 -18649-3 0  9994,2 56487  70.0026  37.9038 0003029 252.6578 107.4250 14.98319052 53252,6950.227,96.108,574.197,569.987,0.0
56487.0,STARLINK-6196,PAYLOAD,2024-04-21 21:11:54,14.98351581,0.0002006,70.0044,36.2216,257.6146,102.4789,0.0001535,1.74e-05,0.0,0 STARLINK-6196,1 56487U 23064AR  24112.88326775  .00001740  00000-0  15350-3 0  9990,2 56487  70.0044  36.2216 0002006 257.6146 102.4789 14.98351581 53718,6950.126,96.106,573.385,570.597,0.0
56487.0,STARLINK-6196,PAYLOAD,2024-04-21 22:48:02,14.98350958,0.0001997,70.0045,36.0532,255.7325,104.3613,0.00016881,1.923e-05,0.0,0 STARLINK-6196,1 56487U 23064AR  24112.95002699  .00001923  00000-0  16881-3 0  9997,2 56487  70.0045  36.0532 0001997 255.7325 104.3613 14.98350958 53369,6950.128,96.106,573.381,570.605,0.0
56487.0,STARLINK-6196,PAYLOAD,2024-04-22 03:36:25,14.98363747,0.0002129,70.0035,35.547,245.2433,114.8505,0.0002822,3.279e-05,0.0,0 STARLINK-6196,1 56487U 23064AR  24113.15029222  .00003279  00000-0  28220-3 0  9997,2 56487  70.0035  35.5470 0002129 245.2433 114.8505 14.98363747 53754,6950.089,96.105,573.433,570.474,0.0
56487.0,STARLINK-6196,PAYLOAD,2024-04-22 05:12:33,14.98364294,0.0002208,70.0038,35.3789,235.3549,124.7402,0.00031988,3.729e-05,0.0,0 STARLINK-6196,1 56487U 23064AR  24113.21704949  .00003729  00000-0  31988-3 0  9995,2 56487  70.0038  35.3789 0002208 235.3549 124.7402 14.98364294 53400,6950.087,96.105,573.486,570.417,0.0
56487.0,STARLINK-6196,PAYLOAD,2024-04-22 19:37:48,14.98295965,0.0002845,70.002,33.8646,252.8678,107.2169,0.0006193,7.298e-05,0.0,0 STARLINK-6196,1 56487U 23064AR  24113.81791971  .00007298  00000-0  61930-3 0  9997,2 56487  70.0020  33.8646 0002845 252.8678 107.2169 14.98295965 53853,6950.298,96.109,574.141,570.186,0.0
56487.0,STARLINK-6196,PAYLOAD,2024-04-22 22:50:04,14.98297088,0.0002971,70.0015,33.5279,254.5549,105.5282,0.00056249,6.619e-05,0.0,0 STARLINK-6196,1 56487U 23064AR  24113.95144279  .00006619  00000-0  56249-3 0  9998,2 56487  70.0015  33.5279 0002971 254.5549 105.5282 14.98297088 53510,6950.295,96.109,574.225,570.095,0.0
56487.0,STARLINK-6196,PAYLOAD,2024-04-23 03:38:29,14.98298065,0.0002881,70.0022,33.0237,245.2113,114.8747,0.00055985,6.588e-05,0.0,0 STARLINK-6196,1 56487U 23064AR  24114.15172557  .00006588  00000-0  55985-3 0  9992,2 56487  70.0022  33.0237 0002881 245.2113 114.8747 14.98298065 53549,6950.292,96.109,574.159,570.154,0.0
56487.0,STARLINK-6196,PAYLOAD,2024-04-23 21:15:57,14.98338303,0.0002862,70.002,31.1718,249.7729,110.3123,-0.00022988,-2.835e-05,0.0,0 STARLINK-6196,1 56487U 23064AR  24114.88608023 -.00002835  00000-0 -22988-3 0  9994,2 56487  70.0020  31.1718 0002862 249.7729 110.3123 14.98338303 54013,6950.167,96.106,574.021,570.043,0.0
56487.0,STARLINK-6196,PAYLOAD,2024-04-24 03:40:29,14.98339151,0.0002816,70.0022,30.4988,246.1329,113.9535,-0.00018935,-2.352e-05,0.0,0 STARLINK-6196,1 56487U 23064AR  24115.15311700 -.00002352  00000-0 -18935-3 0  9999,2 56487  70.0022  30.4988 0002816 246.1329 113.9535 14.98339151 53693,6950.165,96.106,573.987,570.072,0.0
56487.0,STARLINK-6196,PAYLOAD,2024-04-24 21:17:57,14.98328387,0.0002803,70.0025,28.6478,229.0517,131.04,6.5938e-05,6.94e-06,0.0,0 STARLINK-6196,1 56487U 23064AR  24115.88747401  .00000694  00000-0  65938-4 0  9991,2 56487  70.0025  28.6478 0002803 229.0517 131.0400 14.98328387 54168,6950.198,96.107,574.011,570.115,0.0
56487.0,STARLINK-6196,PAYLOAD,2024-04-25 03:42:30,14.9832763,0.0002573,70.0015,27.9715,248.9412,111.1472,0.00010931,1.211e-05,0.0,0 STARLINK-6196,1 56487U 23064AR  24116.15451463  .00001211  00000-0  10931-3 0  9990,2 56487  70.0015  27.9715 0002573 248.9412 111.1472 14.98327630 53843,6950.2,96.107,573.854,570.277,0.0
56487.0,STARLINK-6196,PAYLOAD,2024-04-25 21:19:58,14.98330498,0.000273,70.0014,26.1208,251.2239,108.8624,0.00011501,1.28e-05,0.0,0 STARLINK-6196,1 56487U 23064AR  24116.88887213  .00001280  00000-0  11501-3 0  9996,2 56487  70.0014  26.1208 0002730 251.2239 108.8624 14.98330498 54310,6950.191,96.107,573.954,570.159,0.0
56487.0,STARLINK-6196,PAYLOAD,2024-04-25 22:56:06,14.98330584,0.0002728,70.0013,25.9525,250.6929,109.3935,0.00010952,1.214e-05,0.0,0 STARLINK-6196,1 56487U 23064AR  24116.95563221  .00001214  00000-0  10952-3 0  9990,2 56487  70.0013  25.9525 0002728 250.6929 109.3935 14.98330584 53961,6950.191,96.107,573.952,570.16,0.0
56487.0,STARLINK-6196,PAYLOAD,2024-04-26 11:45:10,14.98336617,0.0002375,70.002,24.6045,264.2341,95.8547,8.808e-05,9.58e-06,0.0,0 STARLINK-6196,1 56487U 23064AR  24117.48970853  .00000958  00000-0  88080-4 0  9994,2 56487  70.0020  24.6045 0002375 264.2341  95.8547 14.98336617 54040,6950.172,96.107,573.688,570.387,0.0
56487.0,STARLINK-6196,PAYLOAD,2024-04-26 19:45:50,14.98339199,0.0002675,70.0012,23.7628,268.0206,92.0647,4.6038e-05,4.57e-06,0.0,0 STARLINK-6196,1 56487U 23064AR  24117.82350611  .00000457  00000-0  46038-4 0  9997,2 56487  70.0012  23.7628 0002675 268.0206  92.0647 14.98339199 54096,6950.164,96.106,573.889,570.17,0.0
56487.0,STARLINK-6196,PAYLOAD,2024-04-27 03:46:30,14.98343214,0.0002571,70.0012,22.9209,264.4858,95.6008,0.00014147,1.596e-05,0.0,0 STARLINK-6196,1 56487U 23064AR  24118.15729914  .00001596  00000-0  14147-3 0  9990,2 56487  70.0012  22.9209 0002571 264.4858  95.6008 14.98343214 54509,6950.152,96.106,573.804,570.23,0.0
56487.0,STARLINK-6196,PAYLOAD,2024-04-27 19:47:52,14.98324112,0.0002716,70.0004,21.2375,269.1922,90.8925,-0.00014746,-1.852e-05,0.0,0 STARLINK-6196,1 56487U 23064AR  24118.82491777 -.00001852  00000-0 -14746-3 0  9999,2 56487  70.0004  21.2375 0002716 269.1922  90.8925 14.98324112 54603,6950.211,96.107,573.964,570.188,0.0
56487.0,STARLINK-6196,PAYLOAD,2024-04-27 21:24:00,14.98324181,0.0002698,70.0003,21.0692,269.8677,90.2173,-0.00014471,-1.819e-05,0.0,0 STARLINK-6196,1 56487U 23064AR  24118.89167793 -.00001819  00000-0 -14471-3 0  9992,2 56487  70.0003  21.0692 0002698 269.8677  90.2173 14.98324181 54251,6950.211,96.107,573.951,570.201,0.0
56487.0,STARLINK-6196,PAYLOAD,2024-04-28 10:13:05,14.98328805,0.0002667,70.0003,19.723,270.6185,89.4668,-9.6239e-05,-1.241e-05,0.0,0 STARLINK-6196,1 56487U 23064AR  24119.42575508 -.00001241  00000-0 -96239-4 0  9991,2 56487  70.0003  19.7230 0002667 270.6185  89.4668 14.98328805 54697,6950.197,96.107,573.915,570.208,0.0
56487.0,STARLINK-6196,PAYLOAD,2024-04-28 21:26:01,14.98332036,0.0002703,70.0,18.5445,269.4957,90.5892,-4.9752e-05,-6.87e-06,0.0,0 STARLINK-6196,1 56487U 23064AR  24119.89307154 -.00000687  00000-0 -49752-4 0  9993,2 56487  70.0000  18.5445 0002703 269.4957  90.5892 14.98332036 54405,6950.187,96.107,573.93,570.173,0.0
56487.0,STARLINK-6196,PAYLOAD,2024-04-29 02:14:25,14.98337996,0.0002663,70.0,18.0396,270.4802,89.6052,-2.2047e-05,-3.56e-06,0.0,0 STARLINK-6196,1 56487U 23064AR  24120.09334663 -.00000356  00000-0 -22047-4 0  9993,2 56487  70.0000  18.0396 0002663 270.4802  89.6052 14.98337996 54790,6950.168,96.106,573.884,570.182,0.0
56487.0,STARLINK-6196,PAYLOAD,2024-04-29 10:15:05,14.98338401,0.000276,69.9999,17.1979,271.3763,88.708,-4.3653e-05,-6.14e-06,0.0,0 STARLINK-6196,1 56487U 23064AR  24120.42714561 -.00000614  00000-0 -43653-4 0  9992,2 56487  69.9999  17.1979 0002760 271.3763  88.7080 14.98338401 54484,6950.167,96.106,573.95,570.114,0.0
56487.0,STARLINK-6196,PAYLOAD,2024-04-29 21:28:02,14.98325802,0.0002616,70.0,16.0198,269.6876,90.3983,0.00013436,1.51e-05,0.0,0 STARLINK-6196,1 56487U 23064AR  24120.89447014  .00001510  00000-0  13436-3 0  9998,2 56487  70.0000  16.0198 0002616 269.6876  90.3983 14.98325802 54916,6950.206,96.107,573.889,570.253,0.0
56487.0,STARLINK-6196,PAYLOAD,2024-04-29 23:04:10,14.98327285,0.0002604,70.0,15.8516,268.9612,91.1249,0.00014934,1.689e-05,0.0,0 STARLINK-6196,1 56487U 23064AR  24120.96122890  .00001689  00000-0  14934-3 0  9999,2 56487  70.0000  15.8516 0002604 268.9612  91.1249 14.98327285 54566,6950.201,96.107,573.876,570.256,0.0
56487.0,STARLINK-6196,PAYLOAD,2024-04-30 02:16:26,14.98329183,0.0002587,70.0,15.5149,269.7035,90.3828,0.00016306,1.853e-05,0.0,0 STARLINK-6196,1 56487U 23064AR  24121.09474749  .00001853  00000-0  16306-3 0  9995,2 56487  70.0000  15.5149 0002587 269.7035  90.3828 14.98329183 54588,6950.195,96.107,573.858,570.262,0.0
56487.0,STARLINK-6196,PAYLOAD,2024-04-30 23:06:11,14.98334237,0.0002528,70.0004,13.3269,268.7109,91.376,1.346e-05,6.8e-07,0.0,0 STARLINK-6196,1 56487U 23064AR  24121.96262738  .00000068  00000-0  13460-4 0  9990,2 56487  70.0004  13.3269 0002528 268.7109  91.3760 14.98334237 54714,6950.18,96.107,573.802,570.288,0.0
56487.0,STARLINK-6196,PAYLOAD,2024-05-01 02:18:27,14.98333731,0.0002544,70.0004,12.9902,268.3329,91.7538,5.7656e-06,-2.4e-07,0.0,0 STARLINK-6196,1 56487U 23064AR  24122.09614750 -.00000024  00000-0  57656-5 0  9999,2 56487  70.0004  12.9902 0002544 268.3329  91.7538 14.98333731 55098,6950.181,96.107,573.814,570.278,0.0
